[{"OBJECT_NAME":"STARLINK-31123","OBJECT_ID":"2024-011L","EPOCH":"2026-03-09T05:45:06.050304","MEAN_MOTION":15.30193616,"ECCENTRICITY":0.00010456,"INCLINATION":53.1618,"RA_OF_ASC_NODE":15.6065,"ARG_OF_PERICENTER":65.6642,"MEAN_ANOMALY":294.4468,"EPHEMERIS_TYPE":0,"CLASSIFICATION_TYPE":"U","NORAD_CAT_ID":58775,"ELEMENT_SET_NO":999,"REV_AT_EPOCH":12020,"BSTAR":5.301985e-5,"MEAN_MOTION_DOT":1.211e-5,"MEAN_MOTION_DDOT":0},{"OBJECT_NAME":"TRANSPORTER-12 OBJECT AZ","OBJECT_ID":"2025-009AZ","EPOCH":"2026-03-09T17:02:46.667040","MEAN_MOTION":15.30349724,"ECCENTRICITY":9.87e-5,"INCLINATION":97.3981,"RA_OF_ASC_NODE":151.9913,"ARG_OF_PERICENTER":45.3581,"MEAN_ANOMALY":314.774,"EPHEMERIS_TYPE":0,"CLASSIFICATION_TYPE":"U","NORAD_CAT_ID":62656,"ELEMENT_SET_NO":999,"REV_AT_EPOCH":6379,"BSTAR":0.00054902545,"MEAN_MOTION_DOT":0.00016057,"MEAN_MOTION_DDOT":0}]
